[{"OBJECT_NAME":"STARLINK-33730","OBJECT_ID":"2025-069G","EPOCH":"2026-03-09T12:39:48.568608","MEAN_MOTION":15.30202885,"ECCENTRICITY":9.007e-5,"INCLINATION":53.1607,"RA_OF_ASC_NODE":142.9653,"ARG_OF_PERICENTER":146.1585,"MEAN_ANOMALY":213.9474,"EPHEMERIS_TYPE":0,"CLASSIFICATION_TYPE":"U","NORAD_CAT_ID":63439,"ELEMENT_SET_NO":999,"REV_AT_EPOCH":5338,"BSTAR":0.0010922317,"MEAN_MOTION_DOT":0.00032132,"MEAN_MOTION_DDOT":0},{"OBJECT_NAME":"BLOCK DM-SL R\/B","OBJECT_ID":"2014-030B","EPOCH":"2026-03-09T15:27:22.931424","MEAN_MOTION":2.30196331,"ECCENTRICITY":0.72027815,"INCLINATION":0.1686,"RA_OF_ASC_NODE":279.7111,"ARG_OF_PERICENTER":234.9296,"MEAN_ANOMALY":273.5572,"EPHEMERIS_TYPE":0,"CLASSIFICATION_TYPE":"U","NORAD_CAT_ID":39774,"ELEMENT_SET_NO":999,"REV_AT_EPOCH":9865,"BSTAR":0.00067457048,"MEAN_MOTION_DOT":6.0e-7,"MEAN_MOTION_DDOT":0}]
